NORAD_CAT_ID,OBJECT_NAME,OBJECT_TYPE,EPOCH,MEAN_MOTION,ECCENTRICITY,INCLINATION,RA_OF_ASC_NODE,ARG_OF_PERICENTER,MEAN_ANOMALY,BSTAR,MEAN_MOTION_DOT,MEAN_MOTION_DDOT,TLE_LINE0,TLE_LINE1,TLE_LINE2,SEMIMAJOR_AXIS,PERIOD,APOGEE,PERIGEE,DECAYED
55641.0,STARLINK-5065,PAYLOAD,2024-07-02 17:07:47,14.98333365,0.0002817,70.0007,295.0412,274.6798,85.404,1.4693e-05,8.2e-07,0.0,0 STARLINK-5065,1 55641U 23021P   24184.71374770  .00000082  00000-0  14693-4 0  9991,2 55641  70.0007 295.0412 0002817 274.6798  85.4040 14.98333365 76673,6950.182,96.107,574.005,570.09,0.0
55641.0,STARLINK-5065,PAYLOAD,2024-07-03 13:57:32,14.9833424,0.0002838,70.0005,292.8533,270.7053,89.3781,9.2428e-05,1.01e-05,0.0,0 STARLINK-5065,1 55641U 23021P   24185.58162429  .00001010  00000-0  92428-4 0  9997,2 55641  70.0005 292.8533 0002838 270.7053  89.3781 14.98334240 76504,6950.18,96.107,574.017,570.072,0.0
55641.0,STARLINK-5065,PAYLOAD,2024-07-03 17:09:48,14.98334069,0.0002848,70.0005,292.5168,271.2955,88.7878,8.5973e-05,9.33e-06,0.0,0 STARLINK-5065,1 55641U 23021P   24185.71514451  .00000933  00000-0  85973-4 0  9998,2 55641  70.0005 292.5168 0002848 271.2955  88.7878 14.98334069 76827,6950.18,96.107,574.025,570.066,0.0
55641.0,STARLINK-5065,PAYLOAD,2024-07-04 12:23:25,14.98326625,0.0002884,70.0009,290.4975,271.928,88.1549,1.7951e-05,1.21e-06,0.0,0 STARLINK-5065,1 55641U 23021P   24186.51627113  .00000121  00000-0  17951-4 0  9997,2 55641  70.0009 290.4975 0002884 271.9280  88.1549 14.98326625 76640,6950.203,96.107,574.073,570.064,0.0
55641.0,STARLINK-5065,PAYLOAD,2024-07-04 13:59:33,14.98327659,0.0002876,70.0009,290.3293,269.8988,90.1842,6.3938e-05,6.7e-06,0.0,0 STARLINK-5065,1 55641U 23021P   24186.58302940  .00000670  00000-0  63938-4 0  9997,2 55641  70.0009 290.3293 0002876 269.8988  90.1842 14.98327659 76955,6950.2,96.107,574.064,570.066,0.0
55641.0,STARLINK-5065,PAYLOAD,2024-07-04 17:11:49,14.98328224,0.0002898,70.001,289.993,269.7086,90.3741,7.115e-05,7.56e-06,0.0,0 STARLINK-5065,1 55641U 23021P   24186.71654903  .00000756  00000-0  71150-4 0  9991,2 55641  70.0010 289.9930 0002898 269.7086  90.3741 14.98328224 76972,6950.198,96.107,574.078,570.049,0.0
55641.0,STARLINK-5065,PAYLOAD,2024-07-04 23:36:21,14.98336133,0.0002914,70.001,289.3196,270.392,89.6905,-5.9481e-06,-1.64e-06,0.0,0 STARLINK-5065,1 55641U 23021P   24186.98358541 -.00000164  00000-0 -59481-5 0  9998,2 55641  70.0010 289.3196 0002914 270.3920  89.6905 14.98336133 76717,6950.174,96.107,574.064,570.014,0.0
55641.0,STARLINK-5065,PAYLOAD,2024-07-05 14:01:33,14.98338702,0.0002918,70.0008,287.8049,269.7483,90.3342,7.5544e-05,8.09e-06,0.0,0 STARLINK-5065,1 55641U 23021P   24187.58442058  .00000809  00000-0  75544-4 0  9993,2 55641  70.0008 287.8049 0002918 269.7483  90.3342 14.98338702 77106,6950.166,96.106,574.059,570.003,0.0
55641.0,STARLINK-5065,PAYLOAD,2024-07-05 17:13:49,14.9834173,0.0002904,70.0009,287.4683,269.66,90.4227,0.00010738,1.189e-05,0.0,0 STARLINK-5065,1 55641U 23021P   24187.71793709  .00001189  00000-0  10738-3 0  9995,2 55641  70.0009 287.4683 0002904 269.6600  90.4227 14.98341730 77122,6950.157,96.106,574.04,570.003,0.0
55641.0,STARLINK-5065,PAYLOAD,2024-07-05 23:38:22,14.98336424,0.0002969,70.0007,286.795,269.4213,90.6605,6.6504e-06,-1.4e-07,0.0,0 STARLINK-5065,1 55641U 23021P   24187.98498170 -.00000014  00000-0  66504-5 0  9999,2 55641  70.0007 286.7950 0002969 269.4213  90.6605 14.98336424 76864,6950.173,96.107,574.102,569.975,0.0
55641.0,STARLINK-5065,PAYLOAD,2024-07-06 12:27:27,14.9832608,0.0002848,70.0009,285.4487,268.7167,91.3666,1.7662e-05,1.18e-06,0.0,0 STARLINK-5065,1 55641U 23021P   24188.51906823  .00000118  00000-0  17662-4 0  9992,2 55641  70.0009 285.4487 0002848 268.7167  91.3666 14.98326080 76944,6950.205,96.107,574.049,570.091,0.0
55641.0,STARLINK-5065,PAYLOAD,2024-07-06 14:03:35,14.98325194,0.0002867,70.0009,285.2805,268.2867,91.7964,9.2951e-06,1.8e-07,0.0,0 STARLINK-5065,1 55641U 23021P   24188.58582910  .00000018  00000-0  92951-5 0  9990,2 55641  70.0009 285.2805 0002867 268.2867  91.7964 14.98325194 77254,6950.208,96.107,574.065,570.08,0.0
55641.0,STARLINK-5065,PAYLOAD,2024-07-06 17:14:04,14.99724292,0.0002974,70.0008,284.9394,262.3913,97.6909,0.015326,0.00194867,0.0,0 STARLINK-5065,1 55641U 23021P   24188.71810472  .00194867  00000-0  15326-1 0  9995,2 55641  70.0008 284.9394 0002974 262.3913  97.6909 14.99724292 76973,6945.884,96.018,569.815,565.684,0.0
55641.0,STARLINK-5065,PAYLOAD,2024-07-07 06:00:00,14.98321368,0.0003265,70.0019,283.6049,268.2255,73.4438,0.0031593,0.00037799,0.0,0 STARLINK-5065,1 55641U 23021P   24189.25001157  .00037799  00000-0  31593-2 0  9992,2 55641  70.0019 283.6049 0003265 268.2255  73.4438 14.98321368 77051,6950.22,96.108,574.354,569.815,0.0
55641.0,STARLINK-5065,PAYLOAD,2024-07-07 12:29:28,14.98330962,0.0002787,70.0011,282.9246,268.0074,92.0766,-2.7944e-05,-4.26e-06,0.0,0 STARLINK-5065,1 55641U 23021P   24189.52046675 -.00000426  00000-0 -27944-4 0  9992,2 55641  70.0011 282.9246 0002787 268.0074  92.0766 14.98330962 77094,6950.19,96.107,573.992,570.118,0.0
55641.0,STARLINK-5065,PAYLOAD,2024-07-07 14:05:36,14.98332334,0.0002789,70.0011,282.7562,268.0455,92.0385,-1.4519e-05,-2.66e-06,0.0,0 STARLINK-5065,1 55641U 23021P   24189.58722522 -.00000266  00000-0 -14519-4 0  9996,2 55641  70.0011 282.7562 0002789 268.0455  92.0385 14.98332334 77405,6950.186,96.107,573.989,570.112,0.0
55641.0,STARLINK-5065,PAYLOAD,2024-07-08 12:31:29,14.98329682,0.0002967,70.0006,280.3985,269.3787,90.7032,7.7513e-05,8.32e-06,0.0,0 STARLINK-5065,1 55641U 23021P   24190.52186377  .00000832  00000-0  77513-4 0  9994,2 55641  70.0006 280.3985 0002967 269.3787  90.7032 14.98329682 77240,6950.194,96.107,574.121,569.997,0.0
55641.0,STARLINK-5065,PAYLOAD,2024-07-08 14:07:37,14.98329204,0.0002998,70.0006,280.23,269.1524,90.9292,6.9461e-05,7.36e-06,0.0,0 STARLINK-5065,1 55641U 23021P   24190.58862427  .00000736  00000-0  69461-4 0  9993,2 55641  70.0006 280.2300 0002998 269.1524  90.9292 14.98329204 77555,6950.195,96.107,574.144,569.977,0.0
55641.0,STARLINK-5065,PAYLOAD,2024-07-08 15:43:45,14.9832984,0.0002993,70.0006,280.0617,269.2268,90.8548,7.5551e-05,8.09e-06,0.0,0 STARLINK-5065,1 55641U 23021P   24190.65538376  .00000809  00000-0  75551-4 0  9992,2 55641  70.0006 280.0617 0002993 269.2268  90.8548 14.98329840 77565,6950.193,96.107,574.139,569.978,0.0
55641.0,STARLINK-5065,PAYLOAD,2024-07-09 12:33:29,14.98334857,0.0003089,70.0003,277.8731,269.6084,90.4721,7.522e-05,8.05e-06,0.0,0 STARLINK-5065,1 55641U 23021P   24191.52325986  .00000805  00000-0  75220-4 0  9999,2 55641  70.0003 277.8731 0003089 269.6084  90.4721 14.98334857 77394,6950.178,96.107,574.19,569.896,0.0
55641.0,STARLINK-5065,PAYLOAD,2024-07-09 14:09:37,14.98334601,0.0003097,70.0003,277.7048,269.6798,90.4006,7.1393e-05,7.59e-06,0.0,0 STARLINK-5065,1 55641U 23021P   24191.59001995  .00000759  00000-0  71393-4 0  9992,2 55641  70.0003 277.7048 0003097 269.6798  90.4006 14.98334601 77703,6950.179,96.107,574.196,569.891,0.0
55641.0,STARLINK-5065,PAYLOAD,2024-07-09 15:45:45,14.98335382,0.0003093,70.0003,277.5364,269.6713,90.4092,7.8808e-05,8.48e-06,0.0,0 STARLINK-5065,1 55641U 23021P   24191.65677909  .00000848  00000-0  78808-4 0  9990,2 55641  70.0003 277.5364 0003093 269.6713  90.4092 14.98335382 77718,6950.176,96.107,574.191,569.892,0.0
55641.0,STARLINK-5065,PAYLOAD,2024-07-10 14:00:01,14.98321797,0.0003401,70.001,275.2009,275.583,40.9408,0.00055457,6.529e-05,0.0,0 STARLINK-5065,1 55641U 23021P   24192.58334491  .00006529  00000-0  55457-3 0  9995,2 55641  70.0010 275.2009 0003401 275.5830  40.9408 14.98321797 77554,6950.218,96.108,574.447,569.719,0.0
55641.0,STARLINK-5065,PAYLOAD,2024-07-10 22:00:01,14.98336742,0.0003347,70.0007,274.3604,273.7127,40.3506,-0.0021452,-0.00025601,0.0,0 STARLINK-5065,1 55641U 23021P   24192.91668981 -.00025601  00000-0 -21452-2 0  9997,2 55641  70.0007 274.3604 0003347 273.7127  40.3506 14.98336742  5818,6950.172,96.107,574.363,569.711,0.0
55641.0,STARLINK-5065,PAYLOAD,2024-07-11 14:13:39,14.98334917,0.0002972,70.0006,272.6572,265.8087,94.2733,2.6582e-05,2.24e-06,0.0,0 STARLINK-5065,1 55641U 23021P   24193.59281972  .00000224  00000-0  26582-4 0  9996,2 55641  70.0006 272.6572 0002972 265.8087  94.2733 14.98334917 78005,6950.178,96.107,574.108,569.977,0.0
55641.0,STARLINK-5065,PAYLOAD,2024-07-11 15:49:47,14.98336165,0.000301,70.0004,272.4882,267.4871,92.5944,4.2168e-05,4.1e-06,0.0,0 STARLINK-5065,1 55641U 23021P   24193.65957835  .00000410  00000-0  42168-4 0  9996,2 55641  70.0004 272.4882 0003010 267.4871  92.5944 14.98336165 77717,6950.174,96.107,574.131,569.947,0.0
55641.0,STARLINK-5065,PAYLOAD,2024-07-12 12:39:32,14.98329097,0.0003019,70.0003,270.2996,270.4961,89.5852,6.7356e-05,7.11e-06,0.0,0 STARLINK-5065,1 55641U 23021P   24194.52746179  .00000711  00000-0  67356-4 0  9990,2 55641  70.0003 270.2996 0003019 270.4961  89.5852 14.98329097 77845,6950.196,96.107,574.159,569.962,0.0
55641.0,STARLINK-5065,PAYLOAD,2024-07-12 14:15:40,14.98329849,0.0002988,70.0004,270.1315,269.5307,90.551,7.6408e-05,8.19e-06,0.0,0 STARLINK-5065,1 55641U 23021P   24194.59422106  .00000819  00000-0  76408-4 0  9995,2 55641  70.0004 270.1315 0002988 269.5307  90.5510 14.98329849 78150,6950.193,96.107,574.135,569.982,0.0
55641.0,STARLINK-5065,PAYLOAD,2024-07-12 22:16:21,14.983296,0.0002963,70.0004,269.2899,269.0688,91.0131,4.2291e-05,4.12e-06,0.0,0 STARLINK-5065,1 55641U 23021P   24194.92802190  .00000412  00000-0  42291-4 0  9999,2 55641  70.0004 269.2899 0002963 269.0688  91.0131 14.98329600 78202,6950.194,96.107,574.118,570.0,0.0
55641.0,STARLINK-5065,PAYLOAD,2024-07-13 12:41:33,14.98328293,0.0003124,70.0001,267.7753,267.3228,92.7573,-4.8312e-05,-6.69e-06,0.0,0 STARLINK-5065,1 55641U 23021P   24195.52886502 -.00000669  00000-0 -48312-4 0  9991,2 55641  70.0001 267.7753 0003124 267.3228  92.7573 14.98328293 77992,6950.198,96.107,574.234,569.892,0.0
